
# Worst residual: 9.03 km
# MJD 56468.000000 (2013 Jun 25  0:00)
9O0DC57
1 50000U 70027C   13176.49922241  .00000000  00000-0  00000-0 0    02
2 50000 029.5438 322.6804 7720059 238.3855 004.7646 00.44304650    06

# Worst residual: 2.90 km
# MJD 56469.000000 (2013 Jun 26  0:00)
9O0DC57
1 50000U 70027C   13177.49922241  .00000000  00000-0  00000-0 0    03
2 50000 029.5274 322.6307 7723975 238.4263 164.1608 00.44296163    04

# Worst residual: 6.47 km
# MJD 56470.000000 (2013 Jun 27  0:00)
9O0DC57
1 50000U 70027C   13178.49922241  .00000000  00000-0  00000-0 0    04
2 50000 029.5204 322.6027 7722637 238.4470 323.6266 00.44282506    08

# Worst residual: 8.82 km
# MJD 56471.000000 (2013 Jun 28  0:00)
9O0DC57
1 50000U 70027C   13179.49922241  .00000000  00000-0  00000-0 0    05
2 50000 029.4971 322.5411 7724813 238.5142 122.9619 00.44274547    07

# Worst residual: 11.47 km
# MJD 56472.000000 (2013 Jun 29  0:00)
9O0DC57
1 50000U 70027C   13180.49922241  .00000000  00000-0  00000-0 0    07
2 50000 029.4803 322.4803 7728977 238.5755 282.3687 00.44281901    08

# Worst residual: 7.56 km
# MJD 56473.000000 (2013 Jun 30  0:00)
9O0DC57
1 50000U 70027C   13181.49922241  .00000000  00000-0  00000-0 0    08
2 50000 029.4629 322.4187 7729711 238.6710 081.7417 00.44270831    00

# Worst residual: 4.63 km
# MJD 56474.000000 (2013 Jul  1  0:00)
9O0DC57
1 50000U 70027C   13182.49922241  .00000000  00000-0  00000-0 0    09
2 50000 029.4327 322.3222 7729875 238.7835 241.0212 00.44270907    02

# Worst residual: 14.07 km
# MJD 56475.000000 (2013 Jul  2  0:00)
9O0DC57
1 50000U 70027C   13183.49922241  .00000000  00000-0  00000-0 0    00
2 50000 029.4228 322.2520 7731758 238.8826 040.3793 00.44271860    09

# Worst residual: 4.52 km
# MJD 56476.000000 (2013 Jul  3  0:00)
9O0DC57
1 50000U 70027C   13184.49922241  .00000000  00000-0  00000-0 0    01
2 50000 029.4030 322.1918 7727946 238.9513 199.8110 00.44277152    01

# Worst residual: 10.99 km
# MJD 56477.000000 (2013 Jul  4  0:00)
9O0DC57
1 50000U 70027C   13185.49922241  .00000000  00000-0  00000-0 0    02
2 50000 029.3913 322.1186 7725746 239.0316 359.1329 00.44278905    06

# Worst residual: 7.61 km
# MJD 56478.000000 (2013 Jul  5  0:00)
9O0DC57
1 50000U 70027C   13186.49922241  .00000000  00000-0  00000-0 0    03
2 50000 029.3808 322.0763 7725286 239.0743 158.5811 00.44291149    04

# Worst residual: 9.09 km
# MJD 56479.000000 (2013 Jul  6  0:00)
9O0DC57
1 50000U 70027C   13187.49922241  .00000000  00000-0  00000-0 0    04
2 50000 029.3733 322.0424 7722414 239.1027 317.9904 00.44285418    07

# Worst residual: 6.20 km
# MJD 56480.000000 (2013 Jul  7  0:00)
9O0DC57
1 50000U 70027C   13188.49922241  .00000000  00000-0  00000-0 0    05
2 50000 029.3614 321.9887 7723333 239.1593 117.3759 00.44283589    02

# Worst residual: 6.24 km
# MJD 56481.000000 (2013 Jul  8  0:00)
9O0DC57
1 50000U 70027C   13189.49922241  .00000000  00000-0  00000-0 0    06
2 50000 029.3566 321.9672 7724887 239.1794 276.8354 00.44293173    00

# Worst residual: 7.19 km
# MJD 56482.000000 (2013 Jul  9  0:00)
9O0DC57
1 50000U 70027C   13190.49922241  .00000000  00000-0  00000-0 0    08
2 50000 029.3436 321.9121 7723903 239.2372 076.2260 00.44282758    01

# Worst residual: 2.59 km
# MJD 56483.000000 (2013 Jul 10  0:00)
9O0DC57
1 50000U 70027C   13191.49922241  .00000000  00000-0  00000-0 0    09
2 50000 029.3363 321.8790 7725992 239.2723 235.6251 00.44288372    00

# Worst residual: 6.41 km
# MJD 56484.000000 (2013 Jul 11  0:00)
9O0DC57
1 50000U 70027C   13192.49922241  .00000000  00000-0  00000-0 0    00
2 50000 029.3280 321.8352 7725165 239.3247 035.0341 00.44295521    02

# Worst residual: 3.43 km
# MJD 56485.000000 (2013 Jul 12  0:00)
9O0DC57
1 50000U 70027C   13193.49922241  .00000000  00000-0  00000-0 0    01
2 50000 029.3174 321.7957 7726023 239.3768 194.3969 00.44284528    06

# Worst residual: 9.63 km
# MJD 56486.000000 (2013 Jul 13  0:00)
9O0DC57
1 50000U 70027C   13194.49922241  .00000000  00000-0  00000-0 0    02
2 50000 029.3108 321.7627 7725943 239.4163 353.8085 00.44277068    09

# Worst residual: 2.21 km
# MJD 56487.000000 (2013 Jul 14  0:00)
9O0DC57
1 50000U 70027C   13195.49922241  .00000000  00000-0  00000-0 0    03
2 50000 029.3012 321.7220 7725635 239.4667 153.1969 00.44284469    04

# Worst residual: 10.68 km
# MJD 56488.000000 (2013 Jul 15  0:00)
9O0DC57
1 50000U 70027C   13196.49922241  .00000000  00000-0  00000-0 0    04
2 50000 029.2995 321.7165 7725386 239.4735 312.6284 00.44270676    07

# Worst residual: 7.75 km
# MJD 56489.000000 (2013 Jul 16  0:00)
9O0DC57
1 50000U 70027C   13197.49922241  .00000000  00000-0  00000-0 0    05
2 50000 029.2875 321.6625 7724549 239.5472 111.9950 00.44275041    04

# Worst residual: 1.97 km
# MJD 56490.000000 (2013 Jul 17  0:00)
9O0DC57
1 50000U 70027C   13198.49922241  .00000000  00000-0  00000-0 0    06
2 50000 029.2881 321.6587 7725968 239.5583 271.3971 00.44284169    02

# Worst residual: 9.86 km
# MJD 56491.000000 (2013 Jul 18  0:00)
9O0DC57
1 50000U 70027C   13199.49922241  .00000000  00000-0  00000-0 0    07
2 50000 029.2762 321.6052 7726206 239.6341 070.7672 00.44271106    02

# Worst residual: 6.42 km
# MJD 56492.000000 (2013 Jul 19  0:00)
9O0DC57
1 50000U 70027C   13200.49922241  .00000000  00000-0  00000-0 0    00
2 50000 029.2686 321.5716 7726911 239.6739 230.1590 00.44283463    07

# Worst residual: 9.30 km
# MJD 56493.000000 (2013 Jul 20  0:00)
9O0DC57
1 50000U 70027C   13201.49922241  .00000000  00000-0  00000-0 0    01
2 50000 029.2605 321.5235 7725082 239.7359 029.5205 00.44300384    06

# Worst residual: 2.15 km
# MJD 56494.000000 (2013 Jul 21  0:00)
9O0DC57
1 50000U 70027C   13202.49922241  .00000000  00000-0  00000-0 0    02
2 50000 029.2469 321.4760 7725249 239.7967 188.9181 00.44288265    02

# Worst residual: 11.61 km
# MJD 56495.000000 (2013 Jul 22  0:00)
9O0DC57
1 50000U 70027C   13203.49922241  .00000000  00000-0  00000-0 0    03
2 50000 029.2387 321.4334 7720960 239.8483 348.2574 00.44304513    09

# Worst residual: 1.45 km
# MJD 56496.000000 (2013 Jul 23  0:00)
9O0DC57
1 50000U 70027C   13204.49922241  .00000000  00000-0  00000-0 0    04
2 50000 029.2235 321.3818 7724441 239.8904 147.6579 00.44297844    07

# Worst residual: 5.94 km
# MJD 56497.000000 (2013 Jul 24  0:00)
9O0DC57
1 50000U 70027C   13205.49922241  .00000000  00000-0  00000-0 0    05
2 50000 029.2175 321.3598 7722181 239.9030 307.1314 00.44280447    06
